NORAD_CAT_ID,OBJECT_NAME,OBJECT_TYPE,EPOCH,MEAN_MOTION,ECCENTRICITY,INCLINATION,RA_OF_ASC_NODE,ARG_OF_PERICENTER,MEAN_ANOMALY,BSTAR,MEAN_MOTION_DOT,MEAN_MOTION_DDOT,TLE_LINE0,TLE_LINE1,TLE_LINE2,SEMIMAJOR_AXIS,PERIOD,APOGEE,PERIGEE,DECAYED
55965.0,STARLINK-5894,PAYLOAD,2024-03-24 12:53:16,14.9832744,0.00027,69.9991,267.4686,266.3846,93.7004,-8.7571e-06,-1.97e-06,0.0,0 STARLINK-5894,1 55965U 23037BD  24084.53699314 -.00000197  00000-0 -87571-5 0  9995,2 55965  69.9991 267.4686 0002700 266.3846  93.7004 14.98327440 57690,6950.201,96.107,573.942,570.189,0.0
55965.0,STARLINK-5894,PAYLOAD,2024-03-24 14:29:24,14.98326829,0.0002725,69.9991,267.3003,265.8272,94.2576,-1.8808e-05,-3.17e-06,0.0,0 STARLINK-5894,1 55965U 23037BD  24084.60375379 -.00000317  00000-0 -18808-4 0  9995,2 55965  69.9991 267.3003 0002725 265.8272  94.2576 14.98326829 57360,6950.203,96.107,573.962,570.174,0.0
55965.0,STARLINK-5894,PAYLOAD,2024-03-24 22:30:04,14.98327513,0.0002728,69.9992,266.4589,265.4768,94.6079,-9.4922e-06,-2.06e-06,0.0,0 STARLINK-5894,1 55965U 23037BD  24084.93755387 -.00000206  00000-0 -94922-5 0  9991,2 55965  69.9992 266.4589 0002728 265.4768  94.6079 14.98327513 57418,6950.201,96.107,573.962,570.17,0.0
55965.0,STARLINK-5894,PAYLOAD,2024-03-25 12:55:16,14.98336061,0.0002845,69.9988,264.9436,269.5779,90.5054,3.4553e-05,3.19e-06,0.0,0 STARLINK-5894,1 55965U 23037BD  24085.53838639  .00000319  00000-0  34553-4 0  9996,2 55965  69.9988 264.9436 0002845 269.5779  90.5054 14.98336061 57847,6950.174,96.107,574.016,570.062,0.0
55965.0,STARLINK-5894,PAYLOAD,2024-03-25 20:55:56,14.98334818,0.0002813,69.9993,264.1024,266.2743,93.8094,5.2519e-05,5.34e-06,0.0,0 STARLINK-5894,1 55965U 23037BD  24085.87218541  .00000534  00000-0  52519-4 0  9998,2 55965  69.9993 264.1024 0002813 266.2743  93.8094 14.98334818 57554,6950.178,96.107,573.998,570.088,0.0
55965.0,STARLINK-5894,PAYLOAD,2024-03-26 12:57:18,14.98319526,0.0002948,69.9995,262.4198,266.824,93.2582,-4.2707e-05,-6.02e-06,0.0,0 STARLINK-5894,1 55965U 23037BD  24086.53979679 -.00000602  00000-0 -42707-4 0  9994,2 55965  69.9995 262.4198 0002948 266.8240  93.2582 14.98319526 57999,6950.225,96.108,574.139,570.041,0.0
55965.0,STARLINK-5894,PAYLOAD,2024-03-26 14:33:26,14.98319889,0.0002959,69.9996,262.2514,267.2243,92.8578,-3.8973e-05,-5.58e-06,0.0,0 STARLINK-5894,1 55965U 23037BD  24086.60655681 -.00000558  00000-0 -38973-4 0  9996,2 55965  69.9996 262.2514 0002959 267.2243  92.8578 14.98319889 57666,6950.224,96.108,574.146,570.033,0.0
55965.0,STARLINK-5894,PAYLOAD,2024-03-26 20:57:58,14.98324592,0.0003007,69.9995,261.5783,266.7503,93.3312,-1.506e-05,-2.73e-06,0.0,0 STARLINK-5894,1 55965U 23037BD  24086.87359407 -.00000273  00000-0 -15060-4 0  9998,2 55965  69.9995 261.5783 0003007 266.7503  93.3312 14.98324592 57707,6950.21,96.107,574.165,569.985,0.0
55965.0,STARLINK-5894,PAYLOAD,2024-03-27 12:59:19,14.98327646,0.0003077,69.9995,259.8945,268.9136,91.1671,-5.8763e-05,-7.94e-06,0.0,0 STARLINK-5894,1 55965U 23037BD  24087.54119438 -.00000794  00000-0 -58763-4 0  9996,2 55965  69.9995 259.8945 0003077 268.9136  91.1671 14.98327646 58146,6950.2,96.107,574.204,569.927,0.0
55965.0,STARLINK-5894,PAYLOAD,2024-03-27 14:35:27,14.98328312,0.0003072,69.9995,259.7262,268.7098,91.3709,-5.1086e-05,-7.02e-06,0.0,0 STARLINK-5894,1 55965U 23037BD  24087.60795382 -.00000702  00000-0 -51086-4 0  9991,2 55965  69.9995 259.7262 0003072 268.7098  91.3709 14.98328312 57815,6950.198,96.107,574.198,569.928,0.0
55965.0,STARLINK-5894,PAYLOAD,2024-03-27 20:59:59,14.98330963,0.0003071,69.9997,259.054,269.2981,90.7826,-3.2044e-05,-4.75e-06,0.0,0 STARLINK-5894,1 55965U 23037BD  24087.87499202 -.00000475  00000-0 -32044-4 0  9992,2 55965  69.9997 259.0540 0003071 269.2981  90.7826 14.98330963 57857,6950.19,96.107,574.189,569.921,0.0
55965.0,STARLINK-5894,PAYLOAD,2024-03-28 13:01:19,14.98329145,0.0003097,69.9995,257.3695,267.8883,92.1922,0.00012206,1.364e-05,0.0,0 STARLINK-5894,1 55965U 23037BD  24088.54258808  .00001364  00000-0  12206-3 0  9995,2 55965  69.9995 257.3695 0003097 267.8883  92.1922 14.98329145 58292,6950.196,96.107,574.213,569.908,0.0
55965.0,STARLINK-5894,PAYLOAD,2024-03-28 21:01:59,14.98335482,0.0003094,69.9996,256.5284,268.6695,91.411,0.00012742,1.428e-05,0.0,0 STARLINK-5894,1 55965U 23037BD  24088.87638363  .00001428  00000-0  12742-3 0  9995,2 55965  69.9996 256.5284 0003094 268.6695  91.4110 14.98335482 58006,6950.176,96.107,574.191,569.891,0.0
55965.0,STARLINK-5894,PAYLOAD,2024-03-29 13:03:20,14.9833075,0.0003012,69.9998,254.8451,268.6849,91.3965,5.2109e-05,5.29e-06,0.0,0 STARLINK-5894,1 55965U 23037BD  24089.54398753  .00000529  00000-0  52109-4 0  9999,2 55965  69.9998 254.8451 0003012 268.6849  91.3965 14.98330750 58444,6950.191,96.107,574.149,569.962,0.0
55965.0,STARLINK-5894,PAYLOAD,2024-03-29 21:04:00,14.98335629,0.0002931,70.0001,254.0039,267.9203,92.162,7.0855e-05,7.53e-06,0.0,0 STARLINK-5894,1 55965U 23037BD  24089.87778309  .00000753  00000-0  70855-4 0  9991,2 55965  70.0001 254.0039 0002931 267.9203  92.1620 14.98335629 58156,6950.175,96.107,574.078,570.003,0.0
55965.0,STARLINK-5894,PAYLOAD,2024-03-30 13:05:21,14.98330514,0.0003062,69.9996,252.3195,280.1637,79.9177,-6.3787e-05,-8.54e-06,0.0,0 STARLINK-5894,1 55965U 23037BD  24090.54538924 -.00000854  00000-0 -63787-4 0  9994,2 55965  69.9996 252.3195 0003062 280.1637  79.9177 14.98330514 58590,6950.191,96.107,574.184,569.928,0.0
55965.0,STARLINK-5894,PAYLOAD,2024-03-30 21:06:01,14.98332818,0.0002846,69.9989,251.4778,268.3486,91.7347,-7.1033e-05,-9.4e-06,0.0,0 STARLINK-5894,1 55965U 23037BD  24090.87918634 -.00000940  00000-0 -71033-4 0  9999,2 55965  69.9989 251.4778 0002846 268.3486  91.7347 14.98332818 58307,6950.184,96.107,574.027,570.071,0.0
55965.0,STARLINK-5894,PAYLOAD,2024-03-31 13:07:22,14.98332682,0.0002791,69.9996,249.7945,272.3346,87.7493,-2.6427e-05,-4.08e-06,0.0,0 STARLINK-5894,1 55965U 23037BD  24091.54678447 -.00000408  00000-0 -26427-4 0  9995,2 55965  69.9996 249.7945 0002791 272.3346  87.7493 14.98332682 58744,6950.185,96.107,573.989,570.11,0.0
55965.0,STARLINK-5894,PAYLOAD,2024-03-31 14:43:30,14.98332144,0.0002832,69.9998,249.6262,272.1538,87.9297,-3.1413e-05,-4.68e-06,0.0,0 STARLINK-5894,1 55965U 23037BD  24091.61354475 -.00000468  00000-0 -31413-4 0  9992,2 55965  69.9998 249.6262 0002832 272.1538  87.9297 14.98332144 58415,6950.186,96.107,574.02,570.083,0.0
55965.0,STARLINK-5894,PAYLOAD,2024-03-31 19:31:54,14.98332907,0.000281,70.0001,249.1216,271.2085,88.8752,-1.6831e-05,-2.94e-06,0.0,0 STARLINK-5894,1 55965U 23037BD  24091.81382354 -.00000294  00000-0 -16831-4 0  9995,2 55965  70.0001 249.1216 0002810 271.2085  88.8752 14.98332907 58446,6950.184,96.107,574.002,570.096,0.0
55965.0,STARLINK-5894,PAYLOAD,2024-04-01 13:09:23,14.98339048,0.0002231,70.0005,247.2717,248.6182,111.4739,-0.00034502,-4.208e-05,0.0,0 STARLINK-5894,1 55965U 23037BD  24092.54819107 -.00004208  00000-0 -34502-3 0  9990,2 55965  70.0005 247.2717 0002231 248.6182 111.4739 14.98339048 58898,6950.165,96.106,573.58,570.479,0.0
55965.0,STARLINK-5894,PAYLOAD,2024-04-01 19:33:56,14.98324232,0.0002542,70.0001,246.5968,267.2904,92.7964,-0.00028995,-3.55e-05,0.0,0 STARLINK-5894,1 55965U 23037BD  24092.81523898 -.00003550  00000-0 -28995-3 0  9997,2 55965  70.0001 246.5968 0002542 267.2904  92.7964 14.98324232 58933,6950.211,96.107,573.842,570.309,0.0
55965.0,STARLINK-5894,PAYLOAD,2024-04-02 11:35:16,14.98325741,0.000301,70.0001,244.9138,271.2843,88.7971,9.3799e-06,1.9e-07,0.0,0 STARLINK-5894,1 55965U 23037BD  24093.48283349  .00000019  00000-0  93799-5 0  9996,2 55965  70.0001 244.9138 0003010 271.2843  88.7971 14.98325741 59033,6950.206,96.107,574.163,569.979,0.0
55965.0,STARLINK-5894,PAYLOAD,2024-04-02 13:11:24,14.98325953,0.0003011,70.0002,244.7454,271.2565,88.8249,1.1764e-05,4.7e-07,0.0,0 STARLINK-5894,1 55965U 23037BD  24093.54959348  .00000047  00000-0  11764-4 0  9994,2 55965  70.0002 244.7454 0003011 271.2565  88.8249 14.98325953 58702,6950.205,96.107,574.163,569.978,0.0
55965.0,STARLINK-5894,PAYLOAD,2024-04-02 19:35:57,14.98328735,0.0003018,70.0001,244.0719,271.1113,88.97,1.0905e-05,3.7e-07,0.0,0 STARLINK-5894,1 55965U 23037BD  24093.81663227  .00000037  00000-0  10905-4 0  9997,2 55965  70.0001 244.0719 0003018 271.1113  88.9700 14.98328735 58741,6950.197,96.107,574.159,569.964,0.0
55965.0,STARLINK-5894,PAYLOAD,2024-04-03 11:37:17,14.98329273,0.0003162,69.9999,242.388,269.8243,90.2553,0.00017021,1.938e-05,0.0,0 STARLINK-5894,1 55965U 23037BD  24094.48422675  .00001938  00000-0  17021-3 0  9997,2 55965  69.9999 242.3880 0003162 269.8243  90.2553 14.98329273 59181,6950.195,96.107,574.258,569.862,0.0
55965.0,STARLINK-5894,PAYLOAD,2024-04-03 13:13:25,14.98329728,0.0003163,69.9999,242.2197,269.8134,90.2663,0.00017156,1.955e-05,0.0,0 STARLINK-5894,1 55965U 23037BD  24094.55098645  .00001955  00000-0  17156-3 0  9999,2 55965  69.9999 242.2197 0003163 269.8134  90.2663 14.98329728 58851,6950.194,96.107,574.257,569.86,0.0
55965.0,STARLINK-5894,PAYLOAD,2024-04-03 19:37:57,14.9833352,0.0003126,70.0,241.5469,270.1797,89.9004,0.00022608,2.606e-05,0.0,0 STARLINK-5894,1 55965U 23037BD  24094.81802225  .00002606  00000-0  22608-3 0  9997,2 55965  70.0000 241.5469 0003126 270.1797  89.9004 14.98333520 58893,6950.182,96.107,574.22,569.874,0.0
55965.0,STARLINK-5894,PAYLOAD,2024-04-04 13:15:26,14.98326986,0.0003002,70.0003,239.6952,270.4569,89.6246,-2.2913e-05,-3.66e-06,0.0,0 STARLINK-5894,1 55965U 23037BD  24095.55239318 -.00000366  00000-0 -22913-4 0  9999,2 55965  70.0003 239.6952 0003002 270.4569  89.6246 14.98326986 59348,6950.202,96.107,574.154,569.981,0.0
55965.0,STARLINK-5894,PAYLOAD,2024-04-04 14:51:34,14.98327335,0.0002999,70.0004,239.5268,270.4648,89.6168,-1.9981e-05,-3.31e-06,0.0,0 STARLINK-5894,1 55965U 23037BD  24095.61915292 -.00000331  00000-0 -19981-4 0  9991,2 55965  70.0004 239.5268 0002999 270.4648  89.6168 14.98327335 59016,6950.201,96.107,574.15,569.982,0.0
